EUTELSAT 7A             
1 28187U 04008A   25259.57822628  .00000085  00000+0  00000+0 0  9992
2 28187   5.1314  75.2626 0000895 112.2432 237.2201  1.00270812 78606
EUTELSAT 174A           
1 28924U 05052A   25259.41171067 -.00000009  00000+0  00000+0 0  9995
2 28924   3.5211  79.9173 0006146 100.3482 137.5574  1.00273098 49588
EUTELSAT HOTBIRD 13B    
1 29270U 06032A   25259.51890507  .00000137  00000+0  00000+0 0  9998
2 29270   0.9498  85.2430 0003883  91.9794  38.4249  1.00275486 44567
EUTELSAT HOTBIRD 13C    
1 33459U 08065A   25259.36713499 -.00000119  00000+0  00000+0 0  9998
2 33459   2.2417  82.4339 0004712 119.7250 273.0804  1.00271563 44603
EUTELSAT 36B            
1 36101U 09065A   25259.59369873  .00000000  00000+0  00000+0 0  9992
2 36101   0.0254  25.3509 0005789 158.3110  76.3326  1.00270390 57962
EUTELSAT KA-SAT 9A      
1 37258U 10069A   25259.58546536  .00000043  00000+0  00000+0 0  9991
2 37258   0.0552 328.2799 0003148 173.3121  73.9694  1.00273082 41267
EUTELSAT 7 WEST A       
1 37816U 11051A   25259.58217201 -.00000080  00000+0  00000+0 0  9999
2 37816   0.0693  14.4888 0005982 170.7146  12.8286  1.00271629 51144
EUTELSAT 16A            
1 37836U 11057A   25259.58693869  .00000085  00000+0  00000+0 0  9999
2 37836   0.0661   8.9667 0005421 166.5632  47.5629  1.00274195  4588
